{"type": "FeatureCollection", "features": [{"type": "Feature", "properties": {"norad_id": 24946, "name": "IRIDIUM 33", "group": "iridium-33-debris", "lat": 26.06279586959268, "lon": 64.03345012691952, "alt_km": 777.9526043260712, "timestamp": "2025-12-26T22:28:06.169674+00:00", "meta": {"OBJECT_NAME": "IRIDIUM 33", "OBJECT_ID": "1997-051C", "EPOCH": "2025-12-26T13:58:46.150176", "MEAN_MOTION": 14.350468, "ECCENTRICITY": 0.00086556, "INCLINATION": 86.3856, "RA_OF_ASC_NODE": 62.4104, "ARG_OF_PERICENTER": 156.1022, "MEAN_ANOMALY": 204.0578, "EPHEMERIS_TYPE": 0, "CLASSIFICATION_TYPE": "U", "NORAD_CAT_ID": 24946, "ELEMENT_SET_NO": 999, "REV_AT_EPOCH": 48033, "BSTAR": 0.00011738572, "MEAN_MOTION_DOT": 3.54e-06, "MEAN_MOTION_DDOT": 0}, "tle": {"line1": "1 24946U 97051C   25360.58247859  .00000354  00000+0  11739-3 0  9996", "line2": "2 24946  86.3856  62.4104 0008655 156.1022 204.0578 14.35046800480336"}}, "geometry": {"type": "Point", "coordinates": [64.03345012691952, 26.06279586959268]}}, {"type": "Feature", "properties": {"norad_id": 33773, "name": "IRIDIUM 33 DEB", "group": "iridium-33-debris", "lat": 42.94349258359144, "lon": 57.93219512781184, "alt_km": 739.7947608079285, "timestamp": "2025-12-26T22:28:06.169720+00:00", "meta": {"OBJECT_NAME": "IRIDIUM 33 DEB", "OBJECT_ID": "1997-051L", "EPOCH": "2025-12-26T13:56:59.891136", "MEAN_MOTION": 14.43285398, "ECCENTRICITY": 0.0013338, "INCLINATION": 86.3996, "RA_OF_ASC_NODE": 54.7233, "ARG_OF_PERICENTER": 106.7873, "MEAN_ANOMALY": 253.4792, "EPHEMERIS_TYPE": 0, "CLASSIFICATION_TYPE": "U", "NORAD_CAT_ID": 33773, "ELEMENT_SET_NO": 999, "REV_AT_EPOCH": 88547, "BSTAR": 0.00030304, "MEAN_MOTION_DOT": 1.041e-05, "MEAN_MOTION_DDOT": 0}, "tle": {"line1": "1 33773U 97051L   25360.58124874  .00001041  00000+0  30304-3 0  9998", "line2": "2 33773  86.3996  54.7233 0013338 106.7873 253.4792 14.43285398885471"}}, "geometry": {"type": "Point", "coordinates": [57.93219512781184, 42.94349258359144]}}, {"type": "Feature", "properties": {"norad_id": 33775, "name": "IRIDIUM 33 DEB", "group": "iridium-33-debris", "lat": 35.17924624921265, "lon": 46.06185310550982, "alt_km": 748.8245484765721, "timestamp": "2025-12-26T22:28:06.169737+00:00", "meta": {"OBJECT_NAME": "IRIDIUM 33 DEB", "OBJECT_ID": "1997-051N", "EPOCH": "2025-12-26T14:30:38.060352", "MEAN_MOTION": 14.41497589, "ECCENTRICITY": 0.0015385, "INCLINATION": 86.3623, "RA_OF_ASC_NODE": 43.6333, "ARG_OF_PERICENTER": 113.6049, "MEAN_ANOMALY": 2.3398, "EPHEMERIS_TYPE": 0, "CLASSIFICATION_TYPE": "U", "NORAD_CAT_ID": 33775, "ELEMENT_SET_NO": 999, "REV_AT_EPOCH": 88340, "BSTAR": 0.00033398, "MEAN_MOTION_DOT": 1.105e-05, "MEAN_MOTION_DDOT": 0}, "tle": {"line1": "1 33775U 97051N   25360.60460718  .00001105  00000+0  33398-3 0  9990", "line2": "2 33775  86.3623  43.6333 0015385 113.6049   2.3398 14.41497589883403"}}, "geometry": {"type": "Point", "coordinates": [46.06185310550982, 35.17924624921265]}}, {"type": "Feature", "properties": {"norad_id": 33776, "name": "IRIDIUM 33 DEB", "group": "iridium-33-debris", "lat": 79.43954451812591, "lon": -124.90447051054066, "alt_km": 749.045907636586, "timestamp": "2025-12-26T22:28:06.169751+00:00", "meta": {"OBJECT_NAME": "IRIDIUM 33 DEB", "OBJECT_ID": "1997-051P", "EPOCH": "2025-12-26T17:34:30.701856", "MEAN_MOTION": 14.38258502, "ECCENTRICITY": 0.0015882, "INCLINATION": 86.4031, "RA_OF_ASC_NODE": 74.8995, "ARG_OF_PERICENTER": 146.2524, "MEAN_ANOMALY": 338.8136, "EPHEMERIS_TYPE": 0, "CLASSIFICATION_TYPE": "U", "NORAD_CAT_ID": 33776, "ELEMENT_SET_NO": 999, "REV_AT_EPOCH": 88283, "BSTAR": 0.00026587, "MEAN_MOTION_DOT": 8.29e-06, "MEAN_MOTION_DDOT": 0}, "tle": {"line1": "1 33776U 97051P   25360.73229979  .00000829  00000+0  26587-3 0  9991", "line2": "2 33776  86.4031  74.8995 0015882 146.2524 338.8136 14.38258502882839"}}, "geometry": {"type": "Point", "coordinates": [-124.90447051054066, 79.43954451812591]}}, {"type": "Feature", "properties": {"norad_id": 33777, "name": "IRIDIUM 33 DEB", "group": "iridium-33-debris", "lat": 56.17968505103621, "lon": 34.45207099349145, "alt_km": 704.9740951092854, "timestamp": "2025-12-26T22:28:06.169764+00:00", "meta": {"OBJECT_NAME": "IRIDIUM 33 DEB", "OBJECT_ID": "1997-051Q", "EPOCH": "2025-12-26T13:57:40.983840", "MEAN_MOTION": 14.55708292, "ECCENTRICITY": 0.0006483, "INCLINATION": 86.3775, "RA_OF_ASC_NODE": 29.1803, "ARG_OF_PERICENTER": 191.6529, "MEAN_ANOMALY": 168.453, "EPHEMERIS_TYPE": 0, "CLASSIFICATION_TYPE": "U", "NORAD_CAT_ID": 33777, "ELEMENT_SET_NO": 999, "REV_AT_EPOCH": 88735, "BSTAR": 0.00083346, "MEAN_MOTION_DOT": 3.664e-05, "MEAN_MOTION_DDOT": 0}, "tle": {"line1": "1 33777U 97051Q   25360.58172435  .00003664  00000+0  83346-3 0  9995", "line2": "2 33777  86.3775  29.1803 0006483 191.6529 168.4530 14.55708292887353"}}, "geometry": {"type": "Point", "coordinates": [34.45207099349145, 56.17968505103621]}}, {"type": "Feature", "properties": {"norad_id": 33850, "name": "IRIDIUM 33 DEB", "group": "iridium-33-debris", "lat": 50.77592010855189, "lon": 28.570768293789822, "alt_km": 743.1053341297866, "timestamp": "2025-12-26T22:28:06.169776+00:00", "meta": {"OBJECT_NAME": "IRIDIUM 33 DEB", "OBJECT_ID": "1997-051T", "EPOCH": "2025-12-26T12:56:59.127072", "MEAN_MOTION": 14.42181449, "ECCENTRICITY": 0.0013344, "INCLINATION": 86.3409, "RA_OF_ASC_NODE": 24.245, "ARG_OF_PERICENTER": 120.0989, "MEAN_ANOMALY": 33.2041, "EPHEMERIS_TYPE": 0, "CLASSIFICATION_TYPE": "U", "NORAD_CAT_ID": 33850, "ELEMENT_SET_NO": 999, "REV_AT_EPOCH": 88351, "BSTAR": 0.00043867, "MEAN_MOTION_DOT": 1.465e-05, "MEAN_MOTION_DDOT": 0}, "tle": {"line1": "1 33850U 97051T   25360.53957323  .00001465  00000+0  43867-3 0  9990", "line2": "2 33850  86.3409  24.2450 0013344 120.0989  33.2041 14.42181449883518"}}, "geometry": {"type": "Point", "coordinates": [28.570768293789822, 50.77592010855189]}}, {"type": "Feature", "properties": {"norad_id": 33853, "name": "IRIDIUM 33 DEB", "group": "iridium-33-debris", "lat": 35.42801931948066, "lon": -13.561277144162085, "alt_km": 1032.5329110697594, "timestamp": "2025-12-26T22:28:06.169788+00:00", "meta": {"OBJECT_NAME": "IRIDIUM 33 DEB", "OBJECT_ID": "1997-051W", "EPOCH": "2025-12-26T10:52:30.839808", "MEAN_MOTION": 13.99126555, "ECCENTRICITY": 0.0207803, "INCLINATION": 86.0001, "RA_OF_ASC_NODE": 343.7973, "ARG_OF_PERICENTER": 193.5253, "MEAN_ANOMALY": 291.4961, "EPHEMERIS_TYPE": 0, "CLASSIFICATION_TYPE": "U", "NORAD_CAT_ID": 33853, "ELEMENT_SET_NO": 999, "REV_AT_EPOCH": 85537, "BSTAR": 0.0011675, "MEAN_MOTION_DOT": 2.052e-05, "MEAN_MOTION_DDOT": 0}, "tle": {"line1": "1 33853U 97051W   25360.45313472  .00002052  00000+0  11675-2 0  9999", "line2": "2 33853  86.0001 343.7973 0207803 193.5253 291.4961 13.99126555855379"}}, "geometry": {"type": "Point", "coordinates": [-13.561277144162085, 35.42801931948066]}}, {"type": "Feature", "properties": {"norad_id": 33860, "name": "IRIDIUM 33 DEB", "group": "iridium-33-debris", "lat": -15.494808723672158, "lon": -158.04284710631384, "alt_km": 674.8733213564537, "timestamp": "2025-12-26T22:28:06.169800+00:00", "meta": {"OBJECT_NAME": "IRIDIUM 33 DEB", "OBJECT_ID": "1997-051AD", "EPOCH": "2025-12-26T19:07:15.553920", "MEAN_MOTION": 14.67538628, "ECCENTRICITY": 0.0005824, "INCLINATION": 86.3826, "RA_OF_ASC_NODE": 21.014, "ARG_OF_PERICENTER": 301.0056, "MEAN_ANOMALY": 238.0804, "EPHEMERIS_TYPE": 0, "CLASSIFICATION_TYPE": "U", "NORAD_CAT_ID": 33860, "ELEMENT_SET_NO": 999, "REV_AT_EPOCH": 88928, "BSTAR": 0.0012282, "MEAN_MOTION_DOT": 6.989e-05, "MEAN_MOTION_DDOT": 0}, "tle": {"line1": "1 33860U 97051AD  25360.79670780  .00006989  00000+0  12282-2 0  9990", "line2": "2 33860  86.3826  21.0140 0005824 301.0056 238.0804 14.67538628889287"}}, "geometry": {"type": "Point", "coordinates": [-158.04284710631384, -15.494808723672158]}}, {"type": "Feature", "properties": {"norad_id": 33862, "name": "IRIDIUM 33 DEB", "group": "iridium-33-debris", "lat": -20.777028330991367, "lon": 29.90271715965292, "alt_km": 640.1624149241916, "timestamp": "2025-12-26T22:28:06.169812+00:00", "meta": {"OBJECT_NAME": "IRIDIUM 33 DEB", "OBJECT_ID": "1997-051AF", "EPOCH": "2025-12-26T14:56:06.808128", "MEAN_MOTION": 14.69701742, "ECCENTRICITY": 0.0051898, "INCLINATION": 86.4083, "RA_OF_ASC_NODE": 31.4067, "ARG_OF_PERICENTER": 22.4772, "MEAN_ANOMALY": 97.5758, "EPHEMERIS_TYPE": 0, "CLASSIFICATION_TYPE": "U", "NORAD_CAT_ID": 33862, "ELEMENT_SET_NO": 999, "REV_AT_EPOCH": 89027, "BSTAR": 0.0015611, "MEAN_MOTION_DOT": 9.518e-05, "MEAN_MOTION_DDOT": 0}, "tle": {"line1": "1 33862U 97051AF  25360.62230102  .00009518  00000+0  15611-2 0  9994", "line2": "2 33862  86.4083  31.4067 0051898  22.4772  97.5758 14.69701742890277"}}, "geometry": {"type": "Point", "coordinates": [29.90271715965292, -20.777028330991367]}}, {"type": "Feature", "properties": {"norad_id": 33866, "name": "IRIDIUM 33 DEB", "group": "iridium-33-debris", "lat": -55.26455162459738, "lon": 81.67451007566241, "alt_km": 896.4964391156946, "timestamp": "2025-12-26T22:28:06.169823+00:00", "meta": {"OBJECT_NAME": "IRIDIUM 33 DEB", "OBJECT_ID": "1997-051AK", "EPOCH": "2025-12-26T16:41:52.800000", "MEAN_MOTION": 14.25317881, "ECCENTRICITY": 0.0115243, "INCLINATION": 86.2998, "RA_OF_ASC_NODE": 87.1316, "ARG_OF_PERICENTER": 117.1751, "MEAN_ANOMALY": 34.7291, "EPHEMERIS_TYPE": 0, "CLASSIFICATION_TYPE": "U", "NORAD_CAT_ID": 33866, "ELEMENT_SET_NO": 999, "REV_AT_EPOCH": 87009, "BSTAR": 0.00062512, "MEAN_MOTION_DOT": 1.597e-05, "MEAN_MOTION_DDOT": 0}, "tle": {"line1": "1 33866U 97051AK  25360.69575000  .00001597  00000+0  62512-3 0  9996", "line2": "2 33866  86.2998  87.1316 0115243 117.1751  34.7291 14.25317881870095"}}, "geometry": {"type": "Point", "coordinates": [81.67451007566241, -55.26455162459738]}}]}